STARLINK-4453           
1 53497U 22099AJ  22241.91667824 -.01215846  00000+0 -13747-1 0  9995
2 53497  97.6556   0.7399 0001893  54.1471 359.0027 15.65105580  1305
STARLINK-4439           
1 53498U 22099AK  22241.91667824 -.01215672  00000+0 -13757-1 0  9994
2 53498  97.6556   0.7400 0001836  57.5807 353.6276 15.65083945  1302
STARLINK-4454           
1 53499U 22099AL  22241.91667824 -.01215831  00000+0 -13743-1 0  9997
2 53499  97.6556   0.7399 0001870  55.5850 358.2118 15.65112750  1307
STARLINK-4455           
1 53500U 22099AM  22241.91667824 -.01215742  00000+0 -13750-1 0  9999
2 53500  97.6556   0.7398 0001832  57.9547 354.5480 15.65098325  1308
STARLINK-4434           
1 53501U 22099AN  22241.91667824 -.01215989  00000+0 -13733-1 0  9994
2 53501  97.6556   0.7399 0001894  54.3446   1.3927 15.65134335  1302
STARLINK-4435           
1 53502U 22099AP  22241.91667824 -.01215625  00000+0 -13737-1 0  9996
2 53502  97.6556   0.7399 0001783  61.9984 352.4453 15.65119817  1303
STARLINK-4461           
1 53503U 22099AQ  22241.91667824 -.01215420  00000+0 -13723-1 0  9995
2 53503  97.6556   0.7399 0001721  68.2325 348.1516 15.65141256  1309
STARLINK-4448           
1 53504U 22099AR  22241.91667824 -.01215711  00000+0 -13734-1 0  9991
2 53504  97.6556   0.7399 0001805  60.3325 354.7581 15.65127046  1302
STARLINK-4446           
1 53505U 22099AS  22241.91667824 -.01215753  00000+0 -13715-1 0  9997
2 53505  97.6556   0.7400 0001773  63.4343 354.8895 15.65162948  1303
STARLINK-4437           
1 53506U 22099AT  22241.91667824 -.01215777  00000+0 -13723-1 0  9993
2 53506  97.6556   0.7397 0001804  60.6115 356.4193 15.65148616  1305
STARLINK-4444           
1 53507U 22099AU  22241.91667824 -.01215926  00000+0 -13713-1 0  9999
2 53507  97.6556   0.7400 0001811  60.3405 358.6298 15.65170193  1303
STARLINK-4443           
1 53508U 22099AV  22241.91667824 -.01215964  00000+0 -13721-1 0  9991
2 53508  97.6556   0.7399 0001870  56.0201   1.6572 15.65155878  1305
STARLINK-4402           
1 53509U 22099AW  22241.91667824 -.01216107  00000+0 -13707-1 0  9996
2 53509  97.6556   0.7399 0001876  55.9829   4.2800 15.65184638  1305
STARLINK-4441           
1 53510U 22099AX  22241.91667824 -.01216031  00000+0 -13710-1 0  9998
2 53510  97.6556   0.7397 0001874  56.0425   3.5741 15.65177448  1304
FALCON 9 DEB            
1 53511U 22099AY  22241.77388867  .00151968  10617-4  51957-3 0  9991
2 53511  97.6787   0.9849 0009765 220.0179 140.0374 15.89680868  2683
FALCON 9 DEB            
1 53512U 22099AZ  22241.39154573  .00140876  94968-5  47096-3 0  9992
2 53512  97.6770   0.5586 0007383 217.5752 142.5005 15.90170422  2626
FALCON 9 DEB            
1 53513U 22099BA  22241.56805260  .00187433  15246-4  57993-3 0  9996
2 53513  97.6733   0.7811 0010481 200.9773 159.1071 15.91616686  2659
FALCON 9 DEB            
1 53514U 22099BB  22241.56510430  .00181370  14452-4  55490-3 0  9991
2 53514  97.6717   0.7820 0009768 185.2922 174.8249 15.91850773  2657
2022-100A               
1 53522U 22100A   22241.94150742  .00005993  00000+0  25133-3 0  9997
2 53522  35.0008 143.5509 0007769 348.6078  11.4454 15.22809316  1565
2022-100B               
1 53523U 22100B   22241.93840838  .00009716  00000+0  39819-3 0  9992
2 53523  35.0014 143.5247 0008336 352.3151   7.7428 15.23485604  1567
2022-100C               
1 53524U 22100C   22241.93834322  .00005215  00000+0  21881-3 0  9994
2 53524  35.0008 143.5257 0005710 346.0807  13.9749 15.22845568  1511
2022-100D               
1 53525U 22100D   22241.93623460  .00008734  00000+0  35466-3 0  9997
2 53525  35.0031 143.5106 0008702   1.0506 359.0236 15.23811597  1510
2022-100E               
1 53526U 22100E   22241.94010492  .00003839  00000+0  16206-3 0  9996
2 53526  35.0026 143.5432 0005673 355.7551   4.3115 15.22731964  1514
STARLINK-4511           
1 53527U 22101A   22241.91667824 -.01181367  00000+0 -84966-2 0  9995
2 53527  53.2175 104.6444 0003274 340.8521 277.0157 15.75678673  1611
STARLINK-4503           
1 53528U 22101B   22241.91667824 -.01174767  00000+0 -84571-2 0  9994
2 53528  53.2175 104.6466 0001694 274.3080 343.0135 15.75660898  1307
STARLINK-4478           
1 53529U 22101C   22241.91667824 -.01177437  00000+0 -84591-2 0  9994
2 53529  53.2175 104.6435 0003390 330.6163 287.7937 15.75692384  1306
STARLINK-4482           
1 53530U 22101D   22241.91667824 -.01175016  00000+0 -84251-2 0  9990
2 53530  53.2175 104.6421 0003752 324.0006 295.4800 15.75726055  1306
STARLINK-4487           
1 53531U 22101E   22241.91667824 -.01176447  00000+0 -84450-2 0  9991
2 53531  53.2175 104.6425 0003315 325.8087 293.1354 15.75709692  1301
STARLINK-4483           
1 53532U 22101F   22241.91667824 -.01175166  00000+0 -84163-2 0  9990
2 53532  53.2175 104.6409 0004469 324.9856 295.0338 15.75742405  1301
STARLINK-4493           
1 53533U 22101G   22241.91667824 -.01174762  00000+0 -84090-2 0  9991
2 53533  53.2175 104.6393 0004092 324.0696 296.4873 15.75758863  1303
STARLINK-4488           
1 53534U 22101H   22241.91667824 -.01180819  00000+0 -84344-2 0  9994
2 53534  53.2175 104.6352 0003375 338.7508 283.9427 15.75831237  1309
STARLINK-4138           
1 53535U 22101J   22241.91667824 -.01177516  00000+0 -84208-2 0  9994
2 53535  53.2175 104.6372 0003447 331.0725 290.5510 15.75795645  1308
STARLINK-4053           
1 53536U 22101K   22241.91667824 -.01177108  00000+0 -83919-2 0  9990
2 53536  53.2175 104.6335 0003582 329.9904 293.7738 15.75862485  1307
STARLINK-4120           
1 53537U 22101L   22241.91667824 -.01174993  00000+0 -84049-2 0  9995
2 53537  53.2175 104.6386 0003918 324.2955 296.7923 15.75777347  1302
STARLINK-4118           
1 53538U 22101M   22241.91667824 -.01176727  00000+0 -83828-2 0  9997
2 53538  53.2175 104.6325 0003421 328.4885 295.8029 15.75880944  1308
STARLINK-4123           
1 53539U 22101N   22241.91667824 -.01179987  00000+0 -84344-2 0  9993
2 53539  53.2175 104.6363 0003363 336.7381 285.4217 15.75813534  1304
STARLINK-4486           
1 53540U 22101P   22241.91667824 -.01175704  00000+0 -83588-2 0  9997
2 53540  53.2175 104.6303 0003954 325.4383 299.9119 15.75916057  1308
STARLINK-4485           
1 53541U 22101Q   22241.91667824 -.01178126  00000+0 -84067-2 0  9992
2 53541  53.2175 104.6342 0003436 332.4883 290.7396 15.75846691  1302
STARLINK-4489           
1 53542U 22101R   22241.91667824 -.01179681  00000+0 -83816-2 0  9991
2 53542  53.2175 104.6283 0003151 336.0682 290.3497 15.75951237  1309
STARLINK-4297           
1 53543U 22101S   22241.91667824 -.01178784  00000+0 -83936-2 0  9998
2 53543  53.2175 104.6310 0003177 333.9450 290.8777 15.75899437  1307
STARLINK-4303           
1 53544U 22101T   22241.91667824 -.01176807  00000+0 -83463-2 0  9998
2 53544  53.2175 104.6262 0003239 328.4562 299.0252 15.75983353  1306
STARLINK-4475           
1 53545U 22101U   22241.91667824 -.01175387  00000+0 -83522-2 0  9997
2 53545  53.2175 104.6290 0003667 324.5734 301.3158 15.75931070  1302
STARLINK-4477           
1 53546U 22101V   22241.91667824 -.01363383  53191-3 -41142-2 0  9998
2 53546  53.2176 103.9944 0026839  73.7820 148.3641 15.90913015  1624
STARLINK-4474           
1 53547U 22101W   22241.91667824 -.01176543  00000+0 -83498-2 0  9996
2 53547  53.2175 104.6269 0003433 326.9960 299.9565 15.75965619  1308
STARLINK-4513           
1 53548U 22101X   22241.91667824 -.01174634  00000+0 -82991-2 0  9993
2 53548  53.2175 104.6221 0004230 322.9328 306.6674 15.76050278  1301
STARLINK-4516           
1 53549U 22101Y   22241.91667824 -.01181414  00000+0 -83763-2 0  9996
2 53549  53.2175 104.6248 0003147 341.0945 286.9178 15.76002679  1305
STARLINK-4518           
1 53550U 22101Z   22241.91667824 -.01177157  00000+0 -83122-2 0  9996
2 53550  53.2175 104.6211 0004240 327.9357 302.1922 15.76068848  1300
STARLINK-4514           
1 53551U 22101AA  22241.91667824 -.01173897  00000+0 -83105-2 0  9995
2 53551  53.2175 104.6238 0003371 320.0333 308.5092 15.76015701  1300
STARLINK-4495           
1 53552U 22101AB  22241.91667824 -.01177420  00000+0 -82949-2 0  9997
2 53552  53.2175 104.6179 0004322 328.2829 303.4286 15.76120105  1306
STARLINK-4501           
1 53553U 22101AC  22241.91667824 -.01177059  00000+0 -83076-2 0  9998
2 53553  53.2175 104.6196 0003788 328.7252 301.9317 15.76085756  1306
STARLINK-4506           
1 53554U 22101AD  22241.91667824 -.01177440  00000+0 -82841-2 0  9992
2 53554  53.2175 104.6158 0004049 329.1283 303.6389 15.76153833  1305
STARLINK-4504           
1 53555U 22101AE  22241.91667824 -.01179513  00000+0 -83216-2 0  9993
2 53555  53.2175 104.6186 0003516 335.1342 296.0496 15.76104314  1302
STARLINK-4505           
1 53556U 22101AF  22241.91667824 -.01178877  00000+0 -82845-2 0  9993
2 53556  53.2175 104.6137 0003677 333.2889 300.5298 15.76188834  1302
STARLINK-4502           
1 53557U 22101AG  22241.91667824 -.01177205  00000+0 -82859-2 0  9993
2 53557  53.2175 104.6164 0004548 327.0254 305.2154 15.76136468  1307
STARLINK-4494           
1 53558U 22101AH  22241.91667824 -.01178822  00000+0 -82721-2 0  9998
2 53558  53.2175 104.6116 0003656 333.0718 301.8031 15.76221574  1305
STARLINK-4508           
1 53559U 22101AJ  22241.91667824 -.01177206  00000+0 -82759-2 0  9995
2 53559  53.2175 104.6144 0004103 327.7224 305.5729 15.76170255  1301
STARLINK-4564           
1 53560U 22101AK  22241.91667824 -.01178529  00000+0 -82516-2 0  9997
2 53560  53.2175 104.6095 0004677 329.5285 306.3932 15.76255949  1300
STARLINK-4563           
1 53561U 22101AL  22241.91667824 -.01180073  00000+0 -82889-2 0  9998
2 53561  53.2175 104.6122 0003339 336.2558 298.0862 15.76207142  1305
STARLINK-4565           
1 53562U 22101AM  22241.91667824 -.01182350  00000+0 -82751-2 0  9997
2 53562  53.2175 104.6074 0003439 341.6014 295.3693 15.76291821  1309
